*******************************************************************************
JPL/HORIZONS                1150 Achaia (1929 RB)          2023-Sep-04 11:10:29
Rec #:    1150 (+COV) Soln.date: 2023-Aug-21_16:13:45   # obs: 5294 (1929-2023)
 
IAU76/J2000 helio. ecliptic osc. elements (au, days, deg., period=Julian yrs):
 
  EPOCH=  2457560.5 ! 2016-Jun-21.00 (TDB)         Residual RMS= .2535
   EC= .204602319126403    QR= 1.742483519616774   TP= 2457839.9758484191
   OM= 206.5441552080872   W=  139.5841683370302   IN= 2.392846415813024
   A= 2.190707317254155    MA= 275.0483499316003   ADIST= 2.638931114891536
   PER= 3.24254            N= .303967769           ANGMOM= .024922272
   DAN= 2.48631            DDN= 1.8161             L= 346.152993
   B= 1.5510934            MOID= .73633498         TP= 2017-Mar-27.4758484191
 
Asteroid physical parameters (km, seconds, rotational period in hours):
   GM= n.a.                RAD= 3.8445             ROTPER= 60.99
   H= 12.7                 G= .150                 B-V= n.a.
                           ALBEDO= .251            STYP= n.a.

ASTEROID comments: 
1: soln ref.= JPL#51, OCC=0
2: source=ORB
*******************************************************************************


*******************************************************************************
Ephemeris / API_USER Mon Sep  4 11:10:29 2023 Pasadena, USA      / Horizons
*******************************************************************************
Target body name: 1150 Achaia (1929 RB)           {source: JPL#51}
Center body name: Solar System Barycenter (0)     {source: DE441}
Center-site name: BODY CENTER
*******************************************************************************
Start time      : A.D. 2023-Aug-12 00:00:00.0000 TDB
Stop  time      : A.D. 2023-Aug-13 00:00:00.0000 TDB
Step-size       : 2880 minutes
*******************************************************************************
Center geodetic : 0.0, 0.0, 0.0                   {E-lon(deg),Lat(deg),Alt(km)}
Center cylindric: 0.0, 0.0, 0.0                   {E-lon(deg),Dxy(km),Dz(km)}
Center radii    : (undefined)
Small perturbers: Yes                             {source: SB441-N16}
Output units    : KM-S
Calendar mode   : Mixed Julian/Gregorian
Output type     : GEOMETRIC cartesian states
Output format   : 2 (position and velocity)
Reference frame : Ecliptic of J2000.0
*******************************************************************************
Initial IAU76/J2000 heliocentric ecliptic osculating elements (au, days, deg.):
  EPOCH=  2457560.5 ! 2016-Jun-21.00 (TDB)         Residual RMS= .2535         
   EC= .204602319126403    QR= 1.742483519616774   TP= 2457839.9758484191      
   OM= 206.5441552080872   W=  139.5841683370302   IN= 2.392846415813024       
  Equivalent ICRF heliocentric cartesian coordinates (au, au/d):
   X=-1.190644966777939E+00  Y=-1.761998700489437E+00  Z=-7.107664405540542E-01
  VX= 1.064177520038862E-02 VY=-3.750299046478130E-03 VZ=-1.248915851003715E-03
Asteroid physical parameters (km, seconds, rotational period in hours):        
   GM= n.a.                RAD= 3.8445             ROTPER= 60.99               
   H= 12.7                 G= .150                 B-V= n.a.                   
                           ALBEDO= .251            STYP= n.a.                  
*******************************************************************************
JDTDB
   X     Y     Z
   VX    VY    VZ
*******************************************************************************
$$SOE
2460168.500000000 = A.D. 2023-Aug-12 00:00:00.0000 TDB 
 X = 2.196971237055748E+08 Y =-1.428855897334321E+08 Z = 9.485728304069653E+06
 VX= 1.217326400069492E+01 VY= 2.132250722711112E+01 VZ=-5.712057168322655E-01
$$EOE
*******************************************************************************
 
TIME

  Barycentric Dynamical Time ("TDB" or T_eph) output was requested. This
continuous coordinate time is equivalent to the relativistic proper time
of a clock at rest in a reference frame co-moving with the solar system
barycenter but outside the system's gravity well. It is the independent
variable in the solar system relativistic equations of motion.

  TDB runs at a uniform rate of one SI second per second and is independent
of irregularities in Earth's rotation.
 
CALENDAR SYSTEM

  Mixed calendar mode was active such that calendar dates after AD 1582-Oct-15
(if any) are in the modern Gregorian system. Dates prior to 1582-Oct-5 (if any)
are in the Julian calendar system, which is automatically extended for dates
prior to its adoption on 45-Jan-1 BC.  The Julian calendar is useful for
matching historical dates. The Gregorian calendar more accurately corresponds
to the Earth's orbital motion and seasons. A "Gregorian-only" calendar mode is
available if such physical events are the primary interest.

REFERENCE FRAME AND COORDINATES

  Ecliptic at the standard reference epoch

    Reference epoch: J2000.0
    X-Y plane: adopted Earth orbital plane at the reference epoch
               Note: IAU76 obliquity of 84381.448 arcseconds wrt ICRF X-Y plane
    X-axis   : ICRF
    Z-axis   : perpendicular to the X-Y plane in the directional (+ or -) sense
               of Earth's north pole at the reference epoch.

  Symbol meaning:

    JDTDB    Julian Day Number, Barycentric Dynamical Time
      X      X-component of position vector (km)
      Y      Y-component of position vector (km)
      Z      Z-component of position vector (km)
      VX     X-component of velocity vector (km/sec)                           
      VY     Y-component of velocity vector (km/sec)                           
      VZ     Z-component of velocity vector (km/sec)                           

ABERRATIONS AND CORRECTIONS

 Geometric state vectors have NO corrections or aberrations applied.

Computations by ...

    Solar System Dynamics Group, Horizons On-Line Ephemeris System
    4800 Oak Grove Drive, Jet Propulsion Laboratory
    Pasadena, CA  91109   USA

    General site: https://ssd.jpl.nasa.gov/
    Mailing list: https://ssd.jpl.nasa.gov/email_list.html
    System news : https://ssd.jpl.nasa.gov/horizons/news.html
    User Guide  : https://ssd.jpl.nasa.gov/horizons/manual.html
    Connect     : browser        https://ssd.jpl.nasa.gov/horizons/app.html#/x
                  API            https://ssd-api.jpl.nasa.gov/doc/horizons.html
                  command-line   telnet ssd.jpl.nasa.gov 6775
                  e-mail/batch   https://ssd.jpl.nasa.gov/ftp/ssd/hrzn_batch.txt
                  scripts        https://ssd.jpl.nasa.gov/ftp/ssd/SCRIPTS
    Author      : Jon.D.Giorgini@jpl.nasa.gov
*******************************************************************************
